{"spaceTrack"{"CCSDS_OMM_VERS":"2.0","COMMENT":"GENERATED VIA SPACE-TRACK.ORG API","CREATION_DATE":"2021-01-26T13:36:10","ORIGINATOR":"18 SPCS","OBJECT_NAME":"STARLINK-1123","OBJECT_ID":"2020-001S","CENTER_NAME":"EARTH","REF_FRAME":"TEME","TIME_SYSTEM":"UTC","MEAN_ELEMENT_THEORY":"SGP4","EPOCH":"2021-01-26T10:58:07.435200","MEAN_MOTION":15.05585591,"ECCENTRICITY":0.0001102,"INCLINATION":52.9996,"RA_OF_ASC_NODE":93.4316,"ARG_OF_PERICENTER":91.4538,"MEAN_ANOMALY":268.6576,"EPHEMERIS_TYPE":0,"CLASSIFICATION_TYPE":"U","NORAD_CAT_ID":44930,"ELEMENT_SET_NO":999,"REV_AT_EPOCH":5826,"BSTAR":0.000082216,"MEAN_MOTION_DOT":0.00000919,"MEAN_MOTION_DDOT":0,"SEMIMAJOR_AXIS":6927.846,"PERIOD":95.644,"APOAPSIS":550.474,"PERIAPSIS":548.947,"OBJECT_TYPE":"PAYLOAD","RCS_SIZE":"LARGE","COUNTRY_CODE":"US","LAUNCH_DATE":"2020-01-07","SITE":"AFETR","DECAY_DATE":null,"DECAYED":0,"FILE":2940023,"GP_ID":170389426,"TLE_LINE0":"0 STARLINK-1123","TLE_LINE1":"1 44930U 20001S   21026.45703050  .00000919  00000-0  82216-4 0  9990","TLE_LINE2":"2 44930  52.9996  93.4316 0001102  91.4538 268.6576 15.05585591 58267"},"version":"v1.0","launch":"5eb87d3cffd86e000604b380","longitude":22,"latitude":-28.206138492151688,"height_km":558.6042835950066,"velocity_kms":7.5818761898598535,"id":"5eed7714096e590006985692"}
{"spaceTrack"{"CCSDS_OMM_VERS":"2.0","COMMENT":"GENERATED VIA SPACE-TRACK.ORG API","CREATION_DATE":"2021-01-26T06:36:09","ORIGINATOR":"18 SPCS","OBJECT_NAME":"STARLINK-1108","OBJECT_ID":"2020-001AG","CENTER_NAME":"EARTH","REF_FRAME":"TEME","TIME_SYSTEM":"UTC","MEAN_ELEMENT_THEORY":"SGP4","EPOCH":"2021-01-26T03:40:25.375872","MEAN_MOTION":15.06328656,"ECCENTRICITY":0.0001026,"INCLINATION":53.0083,"RA_OF_ASC_NODE":74.7859,"ARG_OF_PERICENTER":94.9214,"MEAN_ANOMALY":265.1892,"EPHEMERIS_TYPE":0,"CLASSIFICATION_TYPE":"U","NORAD_CAT_ID":44944,"ELEMENT_SET_NO":999,"REV_AT_EPOCH":5849,"BSTAR":0.00080108,"MEAN_MOTION_DOT":0.00011648,"MEAN_MOTION_DDOT":0,"SEMIMAJOR_AXIS":6925.567,"PERIOD":95.597,"APOAPSIS":548.143,"PERIAPSIS":546.722,"OBJECT_TYPE":"PAYLOAD","RCS_SIZE":"LARGE","COUNTRY_CODE":"US","LAUNCH_DATE":"2020-01-07","SITE":"AFETR","DECAY_DATE":null,"DECAYED":0,"FILE":2939467,"GP_ID":170377148,"TLE_LINE0":"0 STARLINK-1108","TLE_LINE1":"1 44944U 20001AG  21026.15307148  .00011648  00000-0  80108-3 0  9998","TLE_LINE2":"2 44944  53.0083  74.7859 0001026  94.9214 265.1892 15.06328656 58495"},"version":"v1.0","launch":"5eb87d3cffd86e000604b380","longitude":174,"latitude":4.931117409402286,"height_km":547.607119272021,"velocity_kms":7.589861582655422,"id":"5eed7714096e590006985693"}
{"spaceTrack"{"CCSDS_OMM_VERS":"2.0","COMMENT":"GENERATED VIA SPACE-TRACK.ORG API","CREATION_DATE":"2021-01-26T06:36:09","ORIGINATOR":"18 SPCS","OBJECT_NAME":"STARLINK-1144","OBJECT_ID":"2020-001V","CENTER_NAME":"EARTH","REF_FRAME":"TEME","TIME_SYSTEM":"UTC","MEAN_ELEMENT_THEORY":"SGP4","EPOCH":"2021-01-26T03:19:17.035968","MEAN_MOTION":15.05586571,"ECCENTRICITY":0.000128,"INCLINATION":53.0012,"RA_OF_ASC_NODE":94.8706,"ARG_OF_PERICENTER":86.1797,"MEAN_ANOMALY":273.9337,"EPHEMERIS_TYPE":0,"CLASSIFICATION_TYPE":"U","NORAD_CAT_ID":44933,"ELEMENT_SET_NO":999,"REV_AT_EPOCH":5950,"BSTAR":0.00011186,"MEAN_MOTION_DOT":0.00001351,"MEAN_MOTION_DDOT":0,"SEMIMAJOR_AXIS":6927.843,"PERIOD":95.644,"APOAPSIS":550.594,"PERIAPSIS":548.821,"OBJECT_TYPE":"PAYLOAD","RCS_SIZE":"LARGE","COUNTRY_CODE":"US","LAUNCH_DATE":"2020-01-07","SITE":"AFETR","DECAY_DATE":null,"DECAYED":0,"FILE":2939468,"GP_ID":170377161,"TLE_LINE0":"0 STARLINK-1144","TLE_LINE1":"1 44933U 20001V   21026.13839162  .00001351  00000-0  11186-3 0  9990","TLE_LINE2":"2 44933  53.0012  94.8706 0001280  86.1797 273.9337 15.05586571 59505"},"version":"v1.0","launch":"5eb87d3cffd86e000604b380","longitude":6,"latitude":-49.54734414605124,"height_km":567.6013610285518,"velocity_kms":7.576632937535038,"id":"5eed7714096e590006985694"}
{"spaceTrack"{"CCSDS_OMM_VERS":"2.0","COMMENT":"GENERATED VIA SPACE-TRACK.ORG API","CREATION_DATE":"2021-01-26T13:36:10","ORIGINATOR":"18 SPCS","OBJECT_NAME":"STARLINK-1070","OBJECT_ID":"2020-001AU","CENTER_NAME":"EARTH","REF_FRAME":"TEME","TIME_SYSTEM":"UTC","MEAN_ELEMENT_THEORY":"SGP4","EPOCH":"2021-01-26T10:42:21.553056","MEAN_MOTION":15.06403215,"ECCENTRICITY":0.0001557,"INCLINATION":53.0567,"RA_OF_ASC_NODE":53.4659,"ARG_OF_PERICENTER":66.6842,"MEAN_ANOMALY":293.4311,"EPHEMERIS_TYPE":0,"CLASSIFICATION_TYPE":"U","NORAD_CAT_ID":44956,"ELEMENT_SET_NO":999,"REV_AT_EPOCH":5882,"BSTAR":0.000088992,"MEAN_MOTION_DOT":0.00001044,"MEAN_MOTION_DDOT":0,"SEMIMAJOR_AXIS":6925.339,"PERIOD":95.592,"APOAPSIS":548.282,"PERIAPSIS":546.125,"OBJECT_TYPE":"PAYLOAD","RCS_SIZE":"LARGE","COUNTRY_CODE":"US","LAUNCH_DATE":"2020-01-07","SITE":"AFETR","DECAY_DATE":null,"DECAYED":0,"FILE":2940000,"GP_ID":170388686,"TLE_LINE0":"0 STARLINK-1070","TLE_LINE1":"1 44956U 20001AU  21026.44608279  .00001044  00000-0  88992-4 0  9991","TLE_LINE2":"2 44956  53.0567  53.4659 0001557  66.6842 293.4311 15.06403215 58821"},"version":"v1.0","launch":"5eb87d3cffd86e000604b380","longitude":36,"latitude":18.860569171254763,"height_km":546.788481388332,"velocity_kms":7.591909629001104,"id":"5eed7714096e590006985695"}
{"spaceTrack"{"CCSDS_OMM_VERS":"2.0","COMMENT":"GENERATED VIA SPACE-TRACK.ORG API","CREATION_DATE":"2021-01-26T02:30:00","ORIGINATOR":"18 SPCS","OBJECT_NAME":"STARLINK-1110","OBJECT_ID":"2020-001AJ","CENTER_NAME":"EARTH","REF_FRAME":"TEME","TIME_SYSTEM":"UTC","MEAN_ELEMENT_THEORY":"SGP4","EPOCH":"2021-01-25T19:54:43.723872","MEAN_MOTION":15.06551725,"ECCENTRICITY":0.0001617,"INCLINATION":53.0037,"RA_OF_ASC_NODE":75.6467,"ARG_OF_PERICENTER":106.2807,"MEAN_ANOMALY":253.8359,"EPHEMERIS_TYPE":0,"CLASSIFICATION_TYPE":"U","NORAD_CAT_ID":44946,"ELEMENT_SET_NO":999,"REV_AT_EPOCH":5845,"BSTAR":0.00025723,"MEAN_MOTION_DOT":0.00003567,"MEAN_MOTION_DDOT":0,"SEMIMAJOR_AXIS":6924.884,"PERIOD":95.583,"APOAPSIS":547.868,"PERIAPSIS":545.629,"OBJECT_TYPE":"PAYLOAD","RCS_SIZE":"LARGE","COUNTRY_CODE":"US","LAUNCH_DATE":"2020-01-07","SITE":"AFETR","DECAY_DATE":null,"DECAYED":0,"FILE":2939303,"GP_ID":170369988,"TLE_LINE0":"0 STARLINK-1110","TLE_LINE1":"1 44946U 20001AJ  21025.82967273  .00003567  00000-0  25723-3 0  9997","TLE_LINE2":"2 44946  53.0037  75.6467 0001617 106.2807 253.8359 15.06551725 58455"},"version":"v1.0","launch":"5eb87d3cffd86e000604b380","longitude":43,"latitude":38.51365799264206,"height_km":548.9522412687575,"velocity_kms":7.592949281251556,"id":"5eed7714096e590006985696"}
{"spaceTrack"{"CCSDS_OMM_VERS":"2.0","COMMENT":"GENERATED VIA SPACE-TRACK.ORG API","CREATION_DATE":"2021-01-26T02:30:00","ORIGINATOR":"18 SPCS","OBJECT_NAME":"STARLINK-1121","OBJECT_ID":"2020-001R","CENTER_NAME":"EARTH","REF_FRAME":"TEME","TIME_SYSTEM":"UTC","MEAN_ELEMENT_THEORY":"SGP4","EPOCH":"2021-01-25T21:25:36.023520","MEAN_MOTION":15.05583787,"ECCENTRICITY":0.0001131,"INCLINATION":52.9998,"RA_OF_ASC_NODE":95.9629,"ARG_OF_PERICENTER":104.5721,"MEAN_ANOMALY":255.5392,"EPHEMERIS_TYPE":0,"CLASSIFICATION_TYPE":"U","NORAD_CAT_ID":44929,"ELEMENT_SET_NO":999,"REV_AT_EPOCH":5817,"BSTAR":-0.00006358,"MEAN_MOTION_DOT":-0.00001206,"MEAN_MOTION_DDOT":0,"SEMIMAJOR_AXIS":6927.851,"PERIOD":95.644,"APOAPSIS":550.5,"PERIAPSIS":548.933,"OBJECT_TYPE":"PAYLOAD","RCS_SIZE":"LARGE","COUNTRY_CODE":"US","LAUNCH_DATE":"2020-01-07","SITE":"AFETR","DECAY_DATE":null,"DECAYED":0,"FILE":2939303,"GP_ID":170371160,"TLE_LINE0":"0 STARLINK-1121","TLE_LINE1":"1 44929U 20001R   21025.89277805 -.00001206  00000-0 -63580-4 0  9994","TLE_LINE2":"2 44929  52.9998  95.9629 0001131 104.5721 255.5392 15.05583787 58179"},"version":"v1.0","launch":"5eb87d3cffd86e000604b380","longitude":144,"latitude":28.07285979336211,"height_km":550.4830919157384,"velocity_kms":7.590752495410049,"id":"5eed7714096e590006985697"}
{"spaceTrack"{"CCSDS_OMM_VERS":"2.0","COMMENT":"GENERATED VIA SPACE-TRACK.ORG API","CREATION_DATE":"2021-01-26T06:36:09","ORIGINATOR":"18 SPCS","OBJECT_NAME":"STARLINK-1096","OBJECT_ID":"2020-001AE","CENTER_NAME":"EARTH","REF_FRAME":"TEME","TIME_SYSTEM":"UTC","MEAN_ELEMENT_THEORY":"SGP4","EPOCH":"2021-01-26T03:03:12.956256","MEAN_MOTION":15.06397107,"ECCENTRICITY":0.0000631,"INCLINATION":53.0378,"RA_OF_ASC_NODE":74.8859,"ARG_OF_PERICENTER":109.9734,"MEAN_ANOMALY":250.1323,"EPHEMERIS_TYPE":0,"CLASSIFICATION_TYPE":"U","NORAD_CAT_ID":44942,"ELEMENT_SET_NO":999,"REV_AT_EPOCH":5849,"BSTAR":0.000043266,"MEAN_MOTION_DOT":0.00000363,"MEAN_MOTION_DDOT":0,"SEMIMAJOR_AXIS":6925.357,"PERIOD":95.592,"APOAPSIS":547.659,"PERIAPSIS":546.785,"OBJECT_TYPE":"PAYLOAD","RCS_SIZE":"LARGE","COUNTRY_CODE":"US","LAUNCH_DATE":"2020-01-07","SITE":"AFETR","DECAY_DATE":null,"DECAYED":0,"FILE":2939466,"GP_ID":170377136,"TLE_LINE0":"0 STARLINK-1096","TLE_LINE1":"1 44942U 20001AE  21026.12723329  .00000363  00000-0  43266-4 0  9993","TLE_LINE2":"2 44942  53.0378  74.8859 0000631 109.9734 250.1323 15.06397107 58496"},"version":"v1.0","launch":"5eb87d3cffd86e000604b380","longitude":22,"latitude":-35.25740164970601,"height_km":558.8261266929476,"velocity_kms":7.58169091383056,"id":"5eed7714096e590006985698"}
